"title","totalScore","reviewsCount","street","city","state","countryCode","website","phone","categoryName","url"
"Anfa uitzendbureau","3.7","3","Europalaan 2","Utrecht",,"NL","http://www.anfa-uitzendbureau.nl/","+31 6 23788216","Temp agency","https://www.google.com/maps/search/?api=1&query=Anfa%20uitzendbureau&query_place_id=ChIJdW5RkfxlxkcRdISjCPwXViQ"
"Aditech Utrecht","2.3","3","Pretoriadreef 134","Utrecht",,"NL","https://www.aditech.nl/?utm_source=google&utm_medium=organic&utm_campaign=gmb-website-button","+31 88 234 8333","Temp agency","https://www.google.com/maps/search/?api=1&query=Aditech%20Utrecht&query_place_id=ChIJvQzmCh9vxkcRoGj20kP5ZTk"
"Vetwork","4.9","15","Biltstraat 182","Utrecht",,"NL","http://www.vetwork.nl/","+31 30 237 1130","Employment agency","https://www.google.com/maps/search/?api=1&query=Vetwork&query_place_id=ChIJp6kr9x9SxkcRb-zlBIDq6z0"
"AutiTalent B.V.","5","1","Vredenburg 40","Utrecht",,"NL","https://www.autitalent.nl/","+31 85 081 9555","Temp agency","https://www.google.com/maps/search/?api=1&query=AutiTalent%20B.V.&query_place_id=ChIJQSJ5K1E_xkcRqxHqCHDUrdU"
"Markooij Uitzendbureau","4.1","22","Krommewetering 103 c","Utrecht",,"NL","http://www.markooij.nl/","+31 30 204 4208","Temp agency","https://www.google.com/maps/search/?api=1&query=Markooij%20Uitzendbureau&query_place_id=ChIJsanVIf5vxkcRh0WINEcmBPc"
"Uitzendbureau Utrecht Timing","4.4","48","Vliegend Hertlaan 15-97","Utrecht",,"NL",,"+31 88 506 3041","Employment agency","https://www.google.com/maps/search/?api=1&query=Uitzendbureau%20Utrecht%20Timing&query_place_id=ChIJW74h2k5vxkcRky48ro6Tb_w"
"ZZP Opdrachten","5","1","Wolvenplein 27","Utrecht",,"NL","https://zzp-opdrachten.nl/",,"Recruiter","https://www.google.com/maps/search/?api=1&query=ZZP%20Opdrachten&query_place_id=ChIJyW7lVwNnxkcRK-opW8qyPtA"
"Azor Uitzendbureau Midden Nederland B.V.","4.5","113","Veilinghavenkade 173","Utrecht",,"NL","http://www.azoruitzendbureau.nl/","+31 30 243 0680","Temp agency","https://www.google.com/maps/search/?api=1&query=Azor%20Uitzendbureau%20Midden%20Nederland%20B.V.&query_place_id=ChIJQZidA2ZvxkcRqu5osvlvH4M"
"Verein | Adviseurs sociale zekerheid & arbodienstverlening",,"0","Orteliuslaan 5","Utrecht",,"NL","https://www.verein.nl/?utm_source=GMBlisting&utm_medium=organic","+31 6 55128972","Occupational health service","https://www.google.com/maps/search/?api=1&query=Verein%20%7C%20Adviseurs%20sociale%20zekerheid%20%26%20arbodienstverlening&query_place_id=ChIJZyA67KRlxkcRnGjYMMYsleM"
"Luba Uitzendbureau Utrecht","4.8","12","Pablo Picassostraat 544","Utrecht",,"NL","https://www.luba.nl/contact/luba-uitzendbureau-utrecht","+31 30 238 1740","Employment agency","https://www.google.com/maps/search/?api=1&query=Luba%20Uitzendbureau%20Utrecht&query_place_id=ChIJSxpxYkRvxkcRQEtR21ynKSE"
"De Werknemerspoule B.V.",,"0","Savannahweg 71C","Utrecht",,"NL","http://www.dewerknemerspoule.nl/","+31 85 303 6849","Temp agency","https://www.google.com/maps/search/?api=1&query=De%20Werknemerspoule%20B.V.&query_place_id=ChIJleV_yDpvxkcREPRpq8GYXIs"
"Capabla",,"0","Maliebaan 98","Utrecht",,"NL","http://capabla.com/",,"Employment agency","https://www.google.com/maps/search/?api=1&query=Capabla&query_place_id=ChIJYYifSbNoxkcRjeLXtewz1LQ"
"Poolsekracht.nl","4.2","19","Kanaalweg 86","Utrecht",,"NL","https://poolsekracht.nl/","+31 6 43975544","Temp agency","https://www.google.com/maps/search/?api=1&query=Poolsekracht.nl&query_place_id=ChIJse-lGHNvxkcRk5n0vaImEHI"
"The Hup",,"0","Maliebaan 75","Utrecht",,"NL","https://www.thehup.nl/","+31 30 240 0511","Consultant","https://www.google.com/maps/search/?api=1&query=The%20Hup&query_place_id=ChIJH7usak1vxkcRLiiRg4IqyK4"
"Skanna Horeca Uitzendbureau","5","2","Wolvenplein 25","Utrecht",,"NL",,"+31 30 207 4094","Temp agency","https://www.google.com/maps/search/?api=1&query=Skanna%20Horeca%20Uitzendbureau&query_place_id=ChIJnVwosGRvxkcRMtdfQrwhHZE"
"Kompas uitzend- en personeelsdiensten",,"0","Rijnlaan 12","Utrecht",,"NL","http://www.kompas-uitzendbureau.nl/","+31 6 54918578","Temp agency","https://www.google.com/maps/search/?api=1&query=Kompas%20uitzend-%20en%20personeelsdiensten&query_place_id=ChIJpQh1mvZlxkcRiQ50LxpjYtw"
"Rvaring uitzendbureau 40+ & 65+","4.8","73","Atoomweg 272","Utrecht",,"NL","http://www.rvaring.nl/","+31 85 744 0962","Temp agency","https://www.google.com/maps/search/?api=1&query=Rvaring%20uitzendbureau%2040%2B%20%26%2065%2B&query_place_id=ChIJJ8zx7M9vxkcRz4X26cdw8x0"
"VNOM | We get the job done","4.8","126","Orteliuslaan 875 - 889","Utrecht",,"NL","https://www.vnom.nl/","+31 30 307 9262","Temp agency","https://www.google.com/maps/search/?api=1&query=VNOM%20%7C%20We%20get%20the%20job%20done&query_place_id=ChIJW54xLMllxkcRzBe00c2eAKU"
"Uw Zorgbemiddelaar","3.2","9","Europalaan 40","Utrecht",,"NL","http://www.uwzorgbemiddelaar.nl/","+31 30 208 1823","Temp agency","https://www.google.com/maps/search/?api=1&query=Uw%20Zorgbemiddelaar&query_place_id=ChIJS_FWcrhvxkcREKa1G4hceV4"
"Naarding & Van der Meer Detachering B.V.","4.2","5","Rijnzathe 6","Utrecht",,"NL","http://www.naardingenvandermeer.nl/","+31 30 744 0004","Temp agency","https://www.google.com/maps/search/?api=1&query=Naarding%20%26%20Van%20der%20Meer%20Detachering%20B.V.&query_place_id=ChIJdQsK_-RvxkcR7jqUg3RRRMc"
"Student Zoekt Bijbaan",,"0","Orteliuslaan 23","Utrecht",,"NL","https://www.studentzoektbijbaan.nl/","+31 30 890 6812","Temp agency","https://www.google.com/maps/search/?api=1&query=Student%20Zoekt%20Bijbaan&query_place_id=ChIJGRF8hKznxUcRH82cUe0Sh8g"
"Even Werkt!",,"0","Herculesplein 88","Utrecht",,"NL","https://www.evenwerkt.nl/","+31 30 711 6474","Temp agency","https://www.google.com/maps/search/?api=1&query=Even%20Werkt!&query_place_id=ChIJRZYi7FpkxkcRM1JCSezkNt8"
"beldoo.nl","4","25","Reykjavikstraat 1","Utrecht",,"NL","http://www.beldoo.nl/",,"Temp agency","https://www.google.com/maps/search/?api=1&query=beldoo.nl&query_place_id=ChIJ39ohLIpvxkcRyd_hLTbh3H0"
"Carrière Utrecht","4.7","23","Musicallaan 75-B","Utrecht",,"NL","https://www.carriere.com/over-carriere/vestigingen/vestiging-carriere-utrecht","+31 30 303 6401","Employment agency","https://www.google.com/maps/search/?api=1&query=Carri%C3%A8re%20Utrecht&query_place_id=ChIJwRP8BRhvxkcRWAaB0_22D8U"
"Doorwerker.nl",,"0","Euclideslaan 253","Utrecht",,"NL","http://www.doorwerker.nl/","+31 88 220 0222","Unemployment office","https://www.google.com/maps/search/?api=1&query=Doorwerker.nl&query_place_id=ChIJI0ND8phpxkcRaTyTfei5ly0"
"UBN Uitzendbureau Utrecht","4.1","46","Biltstraat 22A","Utrecht",,"NL","https://www.ubnuitzendbureau.com/vestiging/uitzendbureau-utrecht/?utm_source=Google-Business","+31 30 271 4717","Temp agency","https://www.google.com/maps/search/?api=1&query=UBN%20Uitzendbureau%20Utrecht&query_place_id=ChIJdZNl0E5vxkcRQYfvmQmorKY"
"Work-on Uitzendbureau - Utrecht","4.1","14","Herculesplein 355A","Utrecht",,"NL","http://www.work-on.nl/","+31 30 636 5009","Temp agency","https://www.google.com/maps/search/?api=1&query=Work-on%20Uitzendbureau%20-%20Utrecht&query_place_id=ChIJDyjrjQJmxkcRduOWDaJl2d4"
"AFF Recruitment & Executive Search","5","21","Oudegracht 27","Utrecht",,"NL","https://affrecruitment.nl/","+31 6 34107500","Recruiter","https://www.google.com/maps/search/?api=1&query=AFF%20Recruitment%20%26%20Executive%20Search&query_place_id=ChIJJ-F3aA7ixUcRdD90zgpBye0"
"XL Studenten Uitzendbureau Utrecht","3.9","24","Herculesplein 241","Utrecht",,"NL","http://www.xluitzendbureau.nl/","+31 30 744 0500","Temp agency","https://www.google.com/maps/search/?api=1&query=XL%20Studenten%20Uitzendbureau%20Utrecht&query_place_id=ChIJzd-4IKhoxkcRuamFc_-CI-o"
"Adecco","4.8","29","Euclideslaan 1","Utrecht",,"NL","https://www.adecco.nl/vacatures/utrecht","+31 30 233 0130","Employment agency","https://www.google.com/maps/search/?api=1&query=Adecco&query_place_id=ChIJk6HGb2xvxkcRBkQsnv92n1A"
"Certus Groep Utrecht",,"0","Nieuwegracht 6","Utrecht",,"NL","http://www.certusgroep.nl/","+31 88 011 5000","Human resource consulting","https://www.google.com/maps/search/?api=1&query=Certus%20Groep%20Utrecht&query_place_id=ChIJuz-Q81sLxkcRhPI-UZQDAw8"
"FC Utrecht Werkt","5","3","Herculesplein 241","Utrecht",,"NL","https://www.fcutrechtwerkt.nl/","+31 30 303 6383","Temp agency","https://www.google.com/maps/search/?api=1&query=FC%20Utrecht%20Werkt&query_place_id=ChIJLw-kdZZnxkcRKsd0AR1a1io"
"Kracht Recruitment Utrecht",,"0","Leidseveer 2","Utrecht",,"NL","https://www.vanuitkracht.nl/?utm_source=Google&utm_medium=Google%20Mijn%20bedrijf&utm_campaign=Utrecht","+31 26 702 4490","Human resource consulting","https://www.google.com/maps/search/?api=1&query=Kracht%20Recruitment%20Utrecht&query_place_id=ChIJMVyISvpvxkcRPR3m3KN5xWM"
"The Super Nice People","5","7","Wolvenplein 27","Utrecht",,"NL","http://www.thesupernicepeople.nl/","+31 85 073 2800","Temp agency","https://www.google.com/maps/search/?api=1&query=The%20Super%20Nice%20People&query_place_id=ChIJZ2MCaL5vxkcRnVjPXclB-Q0"
"WR.nl Recruitment","5","3","Newtonlaan 115","Utrecht",,"NL","https://www.wr.nl/","+31 30 808 0170","Human resource consulting","https://www.google.com/maps/search/?api=1&query=WR.nl%20Recruitment&query_place_id=ChIJz9HSGrBoxkcR7NvgbY--upo"
"Actief Werkt! Uitzendbureau bij UMC",,"0","Padualaan 101","Utrecht",,"NL","https://www.actiefwerkt.nl/vacatures/umc","+31 6 53305305","Temp agency","https://www.google.com/maps/search/?api=1&query=Actief%20Werkt!%20Uitzendbureau%20bij%20UMC&query_place_id=ChIJY7XruU5vxkcRzmllCAGbRMc"
"Go:Office Recruitment","4.9","58","Goeman Borgesiuslaan 77","Utrecht",,"NL","https://go-office.nl/","+31 88 240 9070","Temp agency","https://www.google.com/maps/search/?api=1&query=Go%3AOffice%20Recruitment&query_place_id=ChIJG1vtW0NvxkcRotaP9J1H2hk"
"Uitzendbureau ASA Talent Utrecht","3.3","7","Ganzenmarkt 22","Utrecht",,"NL","https://asatalent.nl/vestigingen/utrecht?utm_source=google&utm_medium=organic&utm_campaign=gmb-vestiging","+31 30 233 3444","Employment agency","https://www.google.com/maps/search/?api=1&query=Uitzendbureau%20ASA%20Talent%20Utrecht&query_place_id=ChIJFWS14URvxkcRcX7YHG9cV5E"
"Tempo-Team uitzendbureau Utrecht centrum","2.7","12","Biltstraat 24","Utrecht",,"NL","https://www.tempo-team.nl/vestigingen/1033/utrecht-biltstraat-24?utm_medium=organic&utm_source=GMB&utm_campaign=GMB_Utrecht","+31 30 272 7200","Employment agency","https://www.google.com/maps/search/?api=1&query=Tempo-Team%20uitzendbureau%20Utrecht%20centrum&query_place_id=ChIJhb9mh0RvxkcR1zExewTogbY"
"Searchr",,"0","Laan van Chartroise 170","Utrecht",,"NL","http://www.searchr.nl/","+31 30 200 3535","Temp agency","https://www.google.com/maps/search/?api=1&query=Searchr&query_place_id=ChIJEdiRhX1vxkcRaXKA-YEdrBQ"
"Vacature: www.meldbedrijf.nl / www.meldvacature.nl / www.jobsboarder.com / www.stageplaats.net",,"0","Geallieerdenlaan 1","Utrecht",,"NL",,"+31 6 55978228","Unemployment office","https://www.google.com/maps/search/?api=1&query=Vacature%3A%20www.meldbedrijf.nl%20%2F%20www.meldvacature.nl%20%2F%20www.jobsboarder.com%20%2F%20www.stageplaats.net&query_place_id=ChIJV7N-BYZlxkcRHicJVCCSUqw"
"Vacature receptionist Utrecht: home",,"0","Biltstraat 54","Utrecht",,"NL",,"+31 30 273 6100",,"https://www.google.com/maps/search/?api=1&query=Vacature%20receptionist%20Utrecht%3A%20home&query_place_id=ChIJ___jtk5vxkcRPOyoksZppRM"
"Vacature callcenter Utrecht",,"0","Vredenburg 30","Utrecht",,"NL","http://www.vacaturecallcenterutrecht.nl/contact/callstaff_utrecht.html","+31 30 232 4300",,"https://www.google.com/maps/search/?api=1&query=Vacature%20callcenter%20Utrecht&query_place_id=ChIJVVWq_EJvxkcRszBhKp72K3k"
"U-boss Uitzendbureau","3.7","3","Potterstraat 6","Utrecht",,"NL","http://www.u-bossuitzendbureau.nl/","+31 30 233 1144","Temp agency","https://www.google.com/maps/search/?api=1&query=U-boss%20Uitzendbureau&query_place_id=ChIJj4WAh0RvxkcRKGc4an6j920"
"NOWJOBS","4.5","93","Herculesplein 36","Utrecht",,"NL","https://www.nowjobs.nl/","+31 88 562 7000","Temp agency","https://www.google.com/maps/search/?api=1&query=NOWJOBS&query_place_id=ChIJNbTjAfNpxkcRIJxd0YWq444"
"Urgent Uitzendburo B.V.","4.8","10","Biltstraat 16","Utrecht",,"NL","https://urgent-uitzendburo.nl/","+31 30 231 6344","Temp agency","https://www.google.com/maps/search/?api=1&query=Urgent%20Uitzendburo%20B.V.&query_place_id=ChIJTXla105vxkcRillw4914x_Y"
"DuoZorg Uitzendbureau / DuoZorg FLEXpert Utrecht","3.5","2","Oud-Wulvenplantsoen 23","Utrecht",,"NL","https://www.duozorg.nl/","+31 30 284 4710","Temp agency","https://www.google.com/maps/search/?api=1&query=DuoZorg%20Uitzendbureau%20%2F%20DuoZorg%20FLEXpert%20Utrecht&query_place_id=ChIJY_pWl_ZlxkcRXUWtGuRrOv8"
"Collistar",,"0","Winthontlaan 6","Utrecht",,"NL",,"+31 88 027 5840","Perfume store","https://www.google.com/maps/search/?api=1&query=Collistar&query_place_id=ChIJFeGOIuplxkcR9LC6gyFXydc"
"Employment Utrecht Young Capital","4.1","520","Arthur van Schendelstraat 500","Utrecht",,"NL","https://www.youngcapital.nl/uitzendbureau/utrecht","+31 30 238 0310","Temp agency","https://www.google.com/maps/search/?api=1&query=Employment%20Utrecht%20Young%20Capital&query_place_id=ChIJzebt2l9vxkcR6OCdsK6c-Cs"
"Independent Artists Agency",,"0","Ien Dalessingel 1C","Utrecht",,"NL","http://www.independent-artistsagency.com/",,"Event planner","https://www.google.com/maps/search/?api=1&query=Independent%20Artists%20Agency&query_place_id=ChIJSVGvNI9lxkcR4t-SUy76sMA"
"My Sales Recruiter","5","1","Europalaan 100","Utrecht",,"NL","https://www.mijnsalesrecruiter.nl/","+31 30 303 9210","Recruiter","https://www.google.com/maps/search/?api=1&query=My%20Sales%20Recruiter&query_place_id=ChIJDwQks4_8xkcRJkM0YM-n4A8"
"Daan Utrecht","5","11","Maliebaan 80B","Utrecht",,"NL","http://www.daan.eu/","+31 10 300 9107","Unemployment office","https://www.google.com/maps/search/?api=1&query=Daan%20Utrecht&query_place_id=ChIJl1yw8bFoxkcRy7hil1zEj0Y"
"Locobrands B.v.","2.8","6","Zonnebaan 34","Utrecht",,"NL","https://locobrands.nl/","+31 30 261 8086","Marketing agency","https://www.google.com/maps/search/?api=1&query=Locobrands%20B.v.&query_place_id=ChIJ__9v8dZvxkcRPIiJXwpnCZ0"
"Serenco Nederland B.V.","5","3","Positronweg 12","Utrecht",,"NL","http://www.serenco.nl/","+31 30 241 5011","Equipment importer","https://www.google.com/maps/search/?api=1&query=Serenco%20Nederland%20B.V.&query_place_id=ChIJ-4J-fNRvxkcRnnkLQHS7IWc"
"Johannes Hospice Foundation Vleuten","4.8","68","Kloosterweide 2","Utrecht",,"NL","https://www.hospitiumvleuten.nl/","+31 30 677 5013","Foundation","https://www.google.com/maps/search/?api=1&query=Johannes%20Hospice%20Foundation%20Vleuten&query_place_id=ChIJlVKPYT1wxkcRulKw_rkAjBg"
"The Solutionz Group B.V.","4.8","21","Savannahweg 60","Utrecht",,"NL","http://www.thesolutionzgroup.com/","+31 30 227 1690","Computer consultant","https://www.google.com/maps/search/?api=1&query=The%20Solutionz%20Group%20B.V.&query_place_id=ChIJAYPIkg1vxkcRtiX68Dk8qVo"
"Handelsonderneming Suilen B.V.","4.7","7","Coloradodreef 21-23","Utrecht",,"NL","https://www.suilen.nl/","+31 30 262 8424","Warehouse","https://www.google.com/maps/search/?api=1&query=Handelsonderneming%20Suilen%20B.V.&query_place_id=ChIJiS2iW1VuxkcRwapDI96FxhY"
"LikeLegal","5","1","Prinsenboslaan 2","Utrecht",,"NL","https://www.likelegal.nl/","+31 30 785 0072","Recruiter","https://www.google.com/maps/search/?api=1&query=LikeLegal&query_place_id=ChIJqaxxme1lxkcRJig1HNr0vm8"
"JAM Utrecht","4","1","Vleutensevaart 100","Utrecht",,"NL","https://www.jongerenarbeidsmarkt.nl/?utm_source=Google&utm_medium=Organisch&utm_campaign=Mijn+bedrijf&utm_content=Utrecht","+31 40 340 0222","Employment agency","https://www.google.com/maps/search/?api=1&query=JAM%20Utrecht&query_place_id=ChIJvaX-J_NvxkcR9TxYmT49Csk"
"JobsforMoms",,"0","Van Brammendreef 165","Utrecht",,"NL","http://www.jobsformoms.nl/","+31 6 38479597","Unemployment office","https://www.google.com/maps/search/?api=1&query=JobsforMoms&query_place_id=ChIJk1j6svFvxkcR_CB_T7uMqLY"
"Leisureworkers","5","2","Burgemeester van Tuyllkade 37B","Utrecht",,"NL","https://leisureworkers.com/","+31 6 27185616","Recruiter","https://www.google.com/maps/search/?api=1&query=Leisureworkers&query_place_id=ChIJ0UjqaJQJx0cRHKsEVI8Imt4"
"The Impact Group B.V.","5","10","Maliestraat 3","Utrecht",,"NL","http://impactgroup.nl/","+31 85 239 2100","Unemployment office","https://www.google.com/maps/search/?api=1&query=The%20Impact%20Group%20B.V.&query_place_id=ChIJKyoJ-EVvxkcRjVUJ___p4hM"
"Toerisme Vacatures Utrecht",,"0","Vleutenseweg 489","Utrecht",,"NL",,"+31 113 573 392","Travel agency","https://www.google.com/maps/search/?api=1&query=Toerisme%20Vacatures%20Utrecht&query_place_id=ChIJ55SErVpvxkcR-oCOjDxoFnI"
"Flo Zorgprofessionals","3","2","Stobberakplantsoen 11","Utrecht",,"NL","https://www.flo-zorgprofessionals.nl/","+31 6 51701884","Temp agency","https://www.google.com/maps/search/?api=1&query=Flo%20Zorgprofessionals&query_place_id=ChIJG9AHg4tvxkcRuF2vh_xGaD0"
"Brunel Utrecht","4.2","42","Winthontlaan 6J","Utrecht",,"NL","http://www.brunel.net/","+31 20 312 5000","Recruiter","https://www.google.com/maps/search/?api=1&query=Brunel%20Utrecht&query_place_id=ChIJfZHCYQJmxkcRzIXrM7m2HWA"
"Work N Joy",,"0","Maarssenbroeksedijk 13","Utrecht",,"NL","https://www.workandjoy.nl/contact/","+31 6 48966223","Temp agency","https://www.google.com/maps/search/?api=1&query=Work%20N%20Joy&query_place_id=ChIJlyfTe9RvxkcRVgNPWM9Apto"
"Strevon | Omscholingstrajecten en vaste banen naar de techniek","4.5","64","Eendrachtlaan 102","Utrecht",,"NL","https://www.strevon.nl/",,"Learning center","https://www.google.com/maps/search/?api=1&query=Strevon%20%7C%20Omscholingstrajecten%20en%20vaste%20banen%20naar%20de%20techniek&query_place_id=ChIJx3eSMGllxkcRA95AXGEyGH8"
"Derec - Utrecht","4.6","14","Europalaan 400","Utrecht",,"NL","https://www.derec.nl/","+31 88 603 3880","Unemployment office","https://www.google.com/maps/search/?api=1&query=Derec%20-%20Utrecht&query_place_id=ChIJf49ATmBpxkcR4hPvWbcq0GE"
"Buro SRO",,"0","'t Goylaan 11","Utrecht",,"NL","http://www.buro-sro.nl/","+31 30 267 9198","Architect","https://www.google.com/maps/search/?api=1&query=Buro%20SRO&query_place_id=ChIJeWouDe9lxkcRr2uNfEwmIes"
"Buro Voor Jou","5","12","Atoomweg 63","Utrecht",,"NL","http://www.burovoorjou.nl/","+31 30 880 4960","Temp agency","https://www.google.com/maps/search/?api=1&query=Buro%20Voor%20Jou&query_place_id=ChIJfQeQBWxvxkcRPfW0hahqGLQ"
"TeamQ14","4.3","63","Orteliuslaan 23","Utrecht",,"NL","https://www.teamq14.nl/","+31 30 890 6812","Unemployment office","https://www.google.com/maps/search/?api=1&query=TeamQ14&query_place_id=ChIJybZ9hKznxUcRsH3yPoYICqA"
"MasterFind People B.V",,"0","Europalaan 500","Utrecht",,"NL","http://www.masterfind.nl/","+31 6 22562878","Recruiter","https://www.google.com/maps/search/?api=1&query=MasterFind%20People%20B.V&query_place_id=ChIJjy4SHMRvHAERaqo6Z9KG_P0"
"Ultimate People",,"0","Vliegend Hertlaan 15-97","Utrecht",,"NL","http://www.ultimate-people.nl/","+31 30 899 2399","Recruiter","https://www.google.com/maps/search/?api=1&query=Ultimate%20People&query_place_id=ChIJfR2Hd_xlxkcR3jWfOLFCPSE"
"TimmermanVacature.nl","3.7","3","Tennesseedreef 13R","Utrecht",,"NL","https://www.timmermanvacature.nl/","+31 88 706 0802","Corporate office","https://www.google.com/maps/search/?api=1&query=TimmermanVacature.nl&query_place_id=ChIJGaxdYlFuxkcR_3UeRqORFdA"
"Recruitment voor Overheid Vacatures",,"0",,"nederland",,"NL",,"+31 6 30501096","Recruiter","https://www.google.com/maps/search/?api=1&query=Recruitment%20voor%20Overheid%20Vacatures&query_place_id=ChIJ9e5gnd1vxkcR7fmVz3APiXo"
"Office Select Flexbureau B.V.",,"0","Pablo Picassostraat 154","Utrecht",,"NL","https://www.officeselect.nl/","+31 6 45322593","Temp agency","https://www.google.com/maps/search/?api=1&query=Office%20Select%20Flexbureau%20B.V.&query_place_id=ChIJRZAu_OFvxkcR3aCioP65Jm0"
"SchilderVacature.nl",,"0","Tennesseedreef 13P","Utrecht",,"NL","http://schildervacature.nl/","+31 88 706 0801","Corporate office","https://www.google.com/maps/search/?api=1&query=SchilderVacature.nl&query_place_id=ChIJOemb2DNvxkcREpuFQySCDog"
"Recruitment Solutionz",,"0","Savannahweg 60","Utrecht",,"NL","https://www.recruitment-solutionz.com/","+31 30 227 1690","Unemployment office","https://www.google.com/maps/search/?api=1&query=Recruitment%20Solutionz&query_place_id=ChIJJzcRKJFvxkcR-sOlYep_jd8"
"Boom recruitment","5","1","Californiëdreef 23","Utrecht",,"NL","http://www.boomrecruitment.nl/","+31 6 58949010","Unemployment office","https://www.google.com/maps/search/?api=1&query=Boom%20recruitment&query_place_id=ChIJNQEZhwhvxkcRLv60J5Xa30Y"
"Matchmakerz Bouw & Techniek",,"0","Zonnebaan 18","Utrecht",,"NL","http://matchmakerz.nl/","+31 30 245 1651","Recruiter","https://www.google.com/maps/search/?api=1&query=Matchmakerz%20Bouw%20%26%20Techniek&query_place_id=ChIJs2ZuvdZvxkcRagCuVFzUqUE"
"CareAbout","3.8","4","Vleutenseweg 386","Utrecht",,"NL","http://www.care-about.nl/","+31 85 130 2244","Medical office","https://www.google.com/maps/search/?api=1&query=CareAbout&query_place_id=ChIJ922ddApvxkcRACwRRE6-4J0"
"Dag1","4.7","71","Atoomweg 63","Utrecht",,"NL","http://www.dag1.nl/","+31 30 700 9765","Employment agency","https://www.google.com/maps/search/?api=1&query=Dag1&query_place_id=ChIJodBBMm9vxkcROIRHBCwV8DI"
"Trend People De Meern","5","2","Rijksstraatweg 96","Utrecht",,"NL","http://www.trend.nl/","+31 30 666 5624","Temp agency","https://www.google.com/maps/search/?api=1&query=Trend%20People%20De%20Meern&query_place_id=ChIJr9ckSFZlxkcROI5tZ9EA0YI"
"Vitec",,"0","Savannahweg 68","Utrecht",,"NL","https://www.vitec.nl/","+31 88 180 1288","Consultant","https://www.google.com/maps/search/?api=1&query=Vitec&query_place_id=ChIJ9Yzqw4RvxkcR2SgGOBeVDqU"
"Bart Vink & Partners","5","35","Atoomweg 63","Utrecht",,"NL","http://www.bartvinkenpartners.nl/","+31 30 320 0250","Recruiter","https://www.google.com/maps/search/?api=1&query=Bart%20Vink%20%26%20Partners&query_place_id=ChIJYUDhNoxlxkcRG_xarLmue8g"
"De Roo interim, werving en trainingen voor onderwijs","4","1","Reykjavikstraat, Helix 1, gebouw, Ruimte M.26","Utrecht",,"NL","http://www.deroo.nl/","+31 88 552 2999","Consultant","https://www.google.com/maps/search/?api=1&query=De%20Roo%20interim%2C%20werving%20en%20trainingen%20voor%20onderwijs&query_place_id=ChIJ61lUVLNoxkcR20DYnPuJb-I"
"PDZ Uitzendbureau Utrecht","4.9","18","Ella Fitzgeraldplein 1","Utrecht",,"NL","https://www.pdz.nl/contact/vestigingen/utrecht","+31 30 307 4002","Temp agency","https://www.google.com/maps/search/?api=1&query=PDZ%20Uitzendbureau%20Utrecht&query_place_id=ChIJ8Zwrm-hvxkcRGPuOXeh1RE8"
"V.O.F. Bosman & Vos","4.8","4","Stadsplateau 29","Utrecht",,"NL","https://www.bosmanvos.nl/","+31 85 043 0568","Business management consultant","https://www.google.com/maps/search/?api=1&query=V.O.F.%20Bosman%20%26%20Vos&query_place_id=ChIJaTzNGe62xUcRmszWyxxKqJ0"
"Vigr",,"0","Savannahweg 68","Utrecht",,"NL","https://www.vigr.nl/","+31 88 180 1280","Executive search firm","https://www.google.com/maps/search/?api=1&query=Vigr&query_place_id=ChIJJ8OQOdZvxkcRfE-nWCMLokw"
"Networkapp",,"0","Postadres:, Theo van Doesburgstraat 48","Utrecht",,"NL","https://networkapp.com/","+31 30 227 0660","Event technology service","https://www.google.com/maps/search/?api=1&query=Networkapp&query_place_id=ChIJjXEuxy1vxkcRl3vag_M0Pjw"
"GawaloVacature","5","2","Tennesseedreef 13R","Utrecht",,"NL","https://gawalovacature.nl/","+31 88 706 0803","Corporate office","https://www.google.com/maps/search/?api=1&query=GawaloVacature&query_place_id=ChIJGaxdYlFuxkcR__VpAGf-rRs"
"Q-logic",,"0","Euclideslaan 51-67","Utrecht",,"NL","http://www.q-logic.nl/","+31 30 808 2924","Recruiter","https://www.google.com/maps/search/?api=1&query=Q-logic&query_place_id=ChIJOx2y9B9ExkcRENcc4LNrGOA"
"De Stadstuin Wolvenplein","4.5","2","Wolvenplein 27","Utrecht",,"NL","https://www.destadstuin.nl/","+31 30 207 2023","Real estate rental agency","https://www.google.com/maps/search/?api=1&query=De%20Stadstuin%20Wolvenplein&query_place_id=ChIJHXn0zVdvxkcRsAlWxQTRucY"
"De Wereld van Vermaat","5","1","Maliebaan 8","Utrecht",,"NL","http://www.dewereldvanvermaat.nl/","+31 30 204 5010","Investment company","https://www.google.com/maps/search/?api=1&query=De%20Wereld%20van%20Vermaat&query_place_id=ChIJaxsO4GJmxkcRKp7A9AdCywA"
"Aannemersbedrijf Bos & Zn.","3.5","11","Jeruzalemstraat 14","Utrecht",,"NL","https://www.aannemerbos.nl/","+31 30 220 2647","Construction company","https://www.google.com/maps/search/?api=1&query=Aannemersbedrijf%20Bos%20%26%20Zn.&query_place_id=ChIJk9ENNfdoxkcRfWnA9VXicSE"
"DNFS","5","7","Maliebaan 75","Utrecht",,"NL","https://www.dnfs.nl/","+31 30 820 1106","Unemployment office","https://www.google.com/maps/search/?api=1&query=DNFS&query_place_id=ChIJH7usak1vxkcRA0Zsx7s17RI"
"ADJ - Talentmanagement voor maatschappelijke organisaties","3","2","Maliebaan 108","Utrecht",,"NL","https://adj.nl/","+31 30 737 1185","Consultant","https://www.google.com/maps/search/?api=1&query=ADJ%20-%20Talentmanagement%20voor%20maatschappelijke%20organisaties&query_place_id=ChIJ6ciyTLNoxkcRsSuFhELfNXw"
"Novicum","4.8","6","Papendorpseweg 75","Utrecht",,"NL","https://novicum.nl/","+31 30 605 1005","Corporate office","https://www.google.com/maps/search/?api=1&query=Novicum&query_place_id=ChIJJVLJ_UVkxkcRyJcTxHtUbPI"
"Yellow Jersey",,"0","Orteliuslaan 1041","Utrecht",,"NL","https://yellowjersey.nl/","+31 6 29197231","Marketing consultant","https://www.google.com/maps/search/?api=1&query=Yellow%20Jersey&query_place_id=ChIJ8T8yp2dvxkcRI3rShTa2Tak"
"Alpha Society","5","5","Burgemeester Reigerstraat 89","Utrecht",,"NL","http://alpha-society.nl/","+31 6 39558196","Marketing consultant","https://www.google.com/maps/search/?api=1&query=Alpha%20Society&query_place_id=ChIJD3CKatFvxkcRpIp8J2ytz1w"
"Keypoint Utrecht","4.5","2","Nieuwegracht 24A","Utrecht",,"NL","http://www.keypoint.eu/","+31 30 820 1168","Consultant","https://www.google.com/maps/search/?api=1&query=Keypoint%20Utrecht&query_place_id=ChIJqRt-G1BvxkcR9_JVAENF_F0"
"Instituut voor Publieke Waarden BV","4","4","Oudegracht 34","Utrecht",,"NL","http://www.publiekewaarden.nl/","+31 6 21388704","Research institute","https://www.google.com/maps/search/?api=1&query=Instituut%20voor%20Publieke%20Waarden%20BV&query_place_id=ChIJ4QyEeiW3xUcRg7pn4zRGyAI"
"Codator BV","5","2","Catharijnesingel 55H","Utrecht",,"NL","https://codator.net/","+31 30 774 0634","Legal services","https://www.google.com/maps/search/?api=1&query=Codator%20BV&query_place_id=ChIJDxZZQGhvxkcRhs0s6AKR2i4"
"U-Centraal",,"0","Drift 11","Utrecht",,"NL",,,"Historical landmark","https://www.google.com/maps/search/?api=1&query=U-Centraal&query_place_id=ChIJVVVkf09vxkcRAiRIBT7-8N4"
"Sardes","4","1","Lange Viestraat 371","Utrecht",,"NL","http://www.sardes.nl/","+31 30 232 6200","Research institute","https://www.google.com/maps/search/?api=1&query=Sardes&query_place_id=ChIJT65RCkNvxkcRByo1FGA1YM0"
"Projectverpleegkundige",,"0","Orteliuslaan 879","Utrecht",,"NL",,,,"https://www.google.com/maps/search/?api=1&query=Projectverpleegkundige&query_place_id=ChIJVYUS5ndlxkcRNwoJdwdq_ZQ"
"Orange Recruitment",,"0","Maliebaan 98","Utrecht",,"NL","https://www.orangerecruitment.nl/","+31 6 54742304","Recruiter","https://www.google.com/maps/search/?api=1&query=Orange%20Recruitment&query_place_id=ChIJYYifSbNoxkcRWSTbMc_1eSk"
"Fonds 21",,"0","Orteliuslaan 27","Utrecht",,"NL","http://www.fonds21.nl/","+31 30 233 7600","Foundation","https://www.google.com/maps/search/?api=1&query=Fonds%2021&query_place_id=ChIJl1wHdZ1lxkcRcXOdWk28F9c"
"INSZO (Instituut voor Zorgoptimalisatie)",,"0","Van Deventerlaan 30-40","Utrecht",,"NL","http://www.inszo.nl/","+31 85 485 7230","Research institute","https://www.google.com/maps/search/?api=1&query=INSZO%20(Instituut%20voor%20Zorgoptimalisatie)&query_place_id=ChIJD4MepGZlxkcR5EZirkT9Rhc"
"Trend People Utrecht","1","1","Maliebaan 50b","Utrecht",,"NL","http://www.trend.nl/","+31 30 231 1913","Temp agency","https://www.google.com/maps/search/?api=1&query=Trend%20People%20Utrecht&query_place_id=ChIJ_x5Ke7tvxkcRnCUfVoRJN1k"
"Ascom (Netherlands) BV","3.9","20","Orteliuslaan 982","Utrecht",,"NL","http://www.ascom.nl/","+31 30 240 9100","Electronic parts supplier","https://www.google.com/maps/search/?api=1&query=Ascom%20(Netherlands)%20BV&query_place_id=ChIJqUqaptBvxkcRVpPvyCpSyBw"
"Humble Recruitment B.V.","5","7","Jansveld 39","Utrecht",,"NL","https://www.humblerecruitment.nl/","+31 88 437 1000","Recruiter","https://www.google.com/maps/search/?api=1&query=Humble%20Recruitment%20B.V.&query_place_id=ChIJd2kBQUBvxkcRFUfXEk3J4N8"
"Manpower Uitzendbureau Utrecht","1.8","6","Papendorpseweg 97","Utrecht",,"NL","https://www.manpower.nl/nl/over-manpower/vestigingen/uitzendbureau-utrecht","+31 30 231 9050","Temp agency","https://www.google.com/maps/search/?api=1&query=Manpower%20Uitzendbureau%20Utrecht&query_place_id=ChIJD-R4-kRvxkcRthNhBloHg_s"
"Bender","4","78","Orteliuslaan 879","Utrecht",,"NL","http://www.bendergroep.nl/","+31 30 767 0015","Recruiter","https://www.google.com/maps/search/?api=1&query=Bender&query_place_id=ChIJw6CEb51lxkcRBWbdMXLneto"
"Basispsycholoog",,"0","De Dompelaar 1 b","Utrecht",,"NL",,,,"https://www.google.com/maps/search/?api=1&query=Basispsycholoog&query_place_id=ChIJVVXZ1lNlxkcRP5ADHzaZoSg"
"Power4People B.V. | Utrecht | Hoofdkantoor","4.5","23","Maliebaan 11","Utrecht",,"NL","http://www.power4people.nl/","+31 30 691 1666","Coaching center","https://www.google.com/maps/search/?api=1&query=Power4People%20B.V.%20%7C%20Utrecht%20%7C%20Hoofdkantoor&query_place_id=ChIJA3usbvhvxkcRe31SL5AX5vI"
"DOEN Horeca Uitzendbureau | Utrecht","4.8","15","Ledig Erf 4","Utrecht",,"NL","https://www.doenhoreca.nl/locatie/horeca-uitzendbureau-utrecht/","+31 85 130 7967","Temp agency","https://www.google.com/maps/search/?api=1&query=DOEN%20Horeca%20Uitzendbureau%20%7C%20Utrecht&query_place_id=ChIJgYJGROtlxkcRH-i9UT6_3ro"
"Pedagogisch Medewerker",,"0","Springweg 102 c","Utrecht",,"NL",,,"After school program","https://www.google.com/maps/search/?api=1&query=Pedagogisch%20Medewerker&query_place_id=ChIJKXF7QlpvxkcRyoLxYZsUwus"
"Voedingsassistent",,"0","Bosboomstraat 1","Utrecht",,"NL",,,,"https://www.google.com/maps/search/?api=1&query=Voedingsassistent&query_place_id=ChIJ____S6poxkcR_2NJDUdVcQo"
"DPA Professionals","5","1","Maliesingel 40","Utrecht",,"NL","https://www.dpa.nl/","+31 20 515 1555","Recruiter","https://www.google.com/maps/search/?api=1&query=DPA%20Professionals&query_place_id=ChIJB9151FNvxkcRIYJJ1g1_ZZ0"
"Pesant",,"0","Rijnzathe 6","Utrecht",,"NL","http://www.pesant.nl/","+31 85 070 3422","Educational consultant","https://www.google.com/maps/search/?api=1&query=Pesant&query_place_id=ChIJv3AhsPDaxUcR9xMR7_KH7us"
"Croo Wolter & dross",,"0","Veldzigt 18","Utrecht",,"NL","http://werkenbijcroonwolterendros.nl/","+31 800 2766634","Automation company","https://www.google.com/maps/search/?api=1&query=Croo%20Wolter%20%26%20dross&query_place_id=ChIJWRNblVxlxkcR1pIGEyZzDkE"
"Sagènn Re-integratie Utrecht","5","2","Meerkoethof 40","Utrecht",,"NL","https://www.sagenn.nl/re-integratie/","+31 10 313 0530","Employment center","https://www.google.com/maps/search/?api=1&query=Sag%C3%A8nn%20Re-integratie%20Utrecht&query_place_id=ChIJ76EB5elvxkcR-wuxrMPu93k"
"Nova Dia","3.9","17","Pythagoraslaan 101","Utrecht",,"NL","http://www.novadia.nl/","+31 30 303 1111","Business broker","https://www.google.com/maps/search/?api=1&query=Nova%20Dia&query_place_id=ChIJy2qqDP6FxkcR9uNkZ8Oo11s"
"Stichting MEEr-groep",,"0","Pallas Athenedreef 10","Utrecht",,"NL","http://www.meer-groep.nl/",,"Foundation","https://www.google.com/maps/search/?api=1&query=Stichting%20MEEr-groep&query_place_id=ChIJjXEuxy1vxkcRLToIySrPcFs"
"Jobs 4 Professionals B.V.","1","1","Maliebaan 137","Utrecht",,"NL","http://www.jbb.nl/","+31 30 208 3003","Legal services","https://www.google.com/maps/search/?api=1&query=Jobs%204%20Professionals%20B.V.&query_place_id=ChIJX6b0UrNoxkcRGsySYfEoBuI"
"B.V. Topselect Groep","4.4","8","Daltonlaan 400, 3e etage","Utrecht",,"NL","https://www.topselectgroep.nl/","+31 85 077 5040","Unemployment office","https://www.google.com/maps/search/?api=1&query=B.V.%20Topselect%20Groep&query_place_id=ChIJs4hcm5loxkcRO_G5r3WhSY4"
"Awareways B.V","5","3","Euclideslaan 141, 4e etage","Utrecht",,"NL","http://www.awareways.com/","+31 30 227 1467","Learning center","https://www.google.com/maps/search/?api=1&query=Awareways%20B.V&query_place_id=ChIJhd60ebpoxkcR4mci6EixBw4"
"Suur Ten Oever",,"0","Euclideslaan 1","Utrecht",,"NL","https://suurtenoever.nl/","+31 85 073 4734","Executive search firm","https://www.google.com/maps/search/?api=1&query=Suur%20Ten%20Oever&query_place_id=ChIJOeDkrftpxkcRkPXBy7pnPrE"
"House of Bèta","3","9","Euclideslaan 2","Utrecht",,"NL","http://houseofbeta.nl/","+31 88 170 1480","Human resource consulting","https://www.google.com/maps/search/?api=1&query=House%20of%20B%C3%A8ta&query_place_id=ChIJj1mdwtBpxkcRfAI8VesFWXA"
"Wesselo & Partners","4.5","4","Pythagoraslaan 101, 16h","Utrecht",,"NL","http://www.wesselopublicvalue.nl/","+31 30 275 8440","Recruiter","https://www.google.com/maps/search/?api=1&query=Wesselo%20%26%20Partners&query_place_id=ChIJCc-h2UhvxkcR7YsEWahgMAw"
"Talent&Pro","4.4","40","Euclideslaan 2","Utrecht",,"NL","https://www.talent-pro.com/","+31 88 170 1400","Human resource consulting","https://www.google.com/maps/search/?api=1&query=Talent%26Pro&query_place_id=ChIJo6NheNFFxkcRNhEooZ8FviY"
"227 LEARNING",,"0","Euclideslaan 265","Utrecht",,"NL","https://www.227learning.nl/","+31 30 307 4440","Executive search firm","https://www.google.com/maps/search/?api=1&query=227%20LEARNING&query_place_id=ChIJU0QVxNZaxkcRwOUvC1YL3RQ"
"Pienk, Office Professionals","4.8","26","Laan van Chartroise 170","Utrecht",,"NL","http://www.pienk.nl/","+31 30 276 7187","Temp agency","https://www.google.com/maps/search/?api=1&query=Pienk%2C%20Office%20Professionals&query_place_id=ChIJk0b7h0hvxkcRLlCM5stU918"
"Bureau Boeren Executive Search",,"0","Professor Leonard Fuchslaan 8","Utrecht",,"NL","http://www.bureauboeren.nl/","+31 6 21518094","Training centre","https://www.google.com/maps/search/?api=1&query=Bureau%20Boeren%20Executive%20Search&query_place_id=ChIJVVx8D0lvxkcRsQLsmmo5xew"
"Mount Consulting B.V.",,"0","Goeman Borgesiuslaan 77","Utrecht",,"NL","http://www.mount.consulting/","+31 30 755 1517","Consultant","https://www.google.com/maps/search/?api=1&query=Mount%20Consulting%20B.V.&query_place_id=ChIJnxu1Rj9lxkcRupd2hKVbcRo"
"Q-Talent","5","3","Oudlaan 4","Utrecht",,"NL","https://www.qtalent.nl/","+31 88 102 0930","Temp agency","https://www.google.com/maps/search/?api=1&query=Q-Talent&query_place_id=ChIJnc7HNz5vxkcRAHDbp1tSsuQ"
"Voor Tekst, bureau voor arbeidsmarktcommunicatie","5","4","Goeman Borgesiuslaan 77","Utrecht",,"NL","https://www.voortekst.nl/","+31 85 760 4206","Marketing agency","https://www.google.com/maps/search/?api=1&query=Voor%20Tekst%2C%20bureau%20voor%20arbeidsmarktcommunicatie&query_place_id=ChIJb4pO1ZomxkcR-A7l38Pn3Jo"
"Work people B.V.","5","1","Van Bijnkershoeklaan 393","Utrecht",,"NL","http://www.workpeoplebv.nl/","+31 30 269 0289","Employment agency","https://www.google.com/maps/search/?api=1&query=Work%20people%20B.V.&query_place_id=ChIJB0fe1YVlxkcRjfP7AiN-qoE"
"CrowdLED LED Wristbands for events","4.4","7","Kon. Wilhelminalaan 3","Utrecht",,"NL","https://www.crowdled.net/","+31 30 878 5813","Event management company","https://www.google.com/maps/search/?api=1&query=CrowdLED%20LED%20Wristbands%20for%20events&query_place_id=ChIJYY06N1dvxkcRghRdu4nctNE"
"Matchcare","4.5","11","Grebbeberglaan 15, Unit 20","Utrecht",,"NL","http://www.matchcare.nl/","+31 30 602 9400","Software company","https://www.google.com/maps/search/?api=1&query=Matchcare&query_place_id=ChIJ4WhARkpkxkcRM2h6_8rSfWA"
"Amigas Uitzendbureau BV","4.5","15","Pretoriadreef 47","Utrecht",,"NL","http://amigasuitzendbureau.nl/","+31 30 267 6379","Temp agency","https://www.google.com/maps/search/?api=1&query=Amigas%20Uitzendbureau%20BV&query_place_id=ChIJkanJmx9vxkcRohNsPnt9MSU"
"Uitzendbureau Zorgflex",,"0","Simplonbaan 134","Utrecht",,"NL","http://www.uitzendbureau-zorgflex.nl/","+31 30 231 0899","Temp agency","https://www.google.com/maps/search/?api=1&query=Uitzendbureau%20Zorgflex&query_place_id=ChIJHW2qXQpmxkcR6p59RpJ4TbU"
"Peoplez",,"0","Laan van Chartroise 170","Utrecht",,"NL","http://www.peoplez.nl/contact/","+31 30 208 1111","Human resource consulting","https://www.google.com/maps/search/?api=1&query=Peoplez&query_place_id=ChIJ3yu6cg5vxkcRo3pTEDWmRBQ"
"Bureau Uitzendzorg",,"0",,,,,,"+31 6 30803560","Home help","https://www.google.com/maps/search/?api=1&query=Bureau%20Uitzendzorg&query_place_id=ChIJEwy5DJ5vxkcRkrMWKS7Dp34"
"Horeca Banen",,"0","Catharijnesteeg 5","Utrecht",,"NL","http://www.horecawerkgevers.nl/","+31 30 123 9876","Employment agency","https://www.google.com/maps/search/?api=1&query=Horeca%20Banen&query_place_id=ChIJAZpi9FBvxkcRaWwt-OlTAig"
"JobsXL BV","2.6","7","Laan van Chartroise 68","Utrecht",,"NL",,"+31 30 242 7710","Temp agency","https://www.google.com/maps/search/?api=1&query=JobsXL%20BV&query_place_id=ChIJ_wPmuBNvxkcRzAY-dNYaoq0"
"Eager People Utrecht","5","21","Grebbeberglaan 15","Utrecht",,"NL","https://eagerpeople.nl/","+31 30 201 1762","Temp agency","https://www.google.com/maps/search/?api=1&query=Eager%20People%20Utrecht&query_place_id=ChIJecuuu4llxkcR6zc3G9DG6Ms"
"Robin | In 1x toegang tot alle kandidaten","4.3","6","Europalaan 400","Utrecht",,"NL","https://www.recruitrobin.com/","+31 30 303 9211","Software company","https://www.google.com/maps/search/?api=1&query=Robin%20%7C%20In%201x%20toegang%20tot%20alle%20kandidaten&query_place_id=ChIJOTY6WqZlxkcRafPaBp8lZi0"
"DigitaalGroeien","5","4","Rotsoord 13B","Utrecht",,"NL","https://digitaalgroeien.nl/","+31 30 737 0845","Educational consultant","https://www.google.com/maps/search/?api=1&query=DigitaalGroeien&query_place_id=ChIJBynnpnxlxkcRoiKU-TLEjdA"
"Groei voor Goed",,"0","Koppestokstraat 3554","Utrecht",,"NL","http://www.groeivoorgoed.nl/","+31 6 48921253","Consultant","https://www.google.com/maps/search/?api=1&query=Groei%20voor%20Goed&query_place_id=ChIJf4YqfPFlxkcRKGP5a9D9-Eg"
"Loopbaan stappen advies",,"0","Willem Barentszstraat 13A","Utrecht",,"NL","http://www.loopbaanstappen.nl/","+31 6 46226729","Counselor","https://www.google.com/maps/search/?api=1&query=Loopbaan%20stappen%20advies&query_place_id=ChIJ1UI8a9JoxkcR4MU-ECAb8OQ"
"Top Secretaries Midden Nederland",,"0","Euclideslaan 1","Utrecht",,"NL","https://www.adecco.nl/topsecretaries","+31 30 233 3489","Employment agency","https://www.google.com/maps/search/?api=1&query=Top%20Secretaries%20Midden%20Nederland&query_place_id=ChIJsVZI70pvxkcRrF0uwGyU_PA"
"Studentalent Utrecht","1.7","3","Herculesplein 241","Utrecht",,"NL","http://www.studentalent.nl/","+31 30 890 6360","Temp agency","https://www.google.com/maps/search/?api=1&query=Studentalent%20Utrecht&query_place_id=ChIJvdZNaUVvxkcRixjNXiKNmwc"
"Teamflex Personeelsdiensten Utrecht","4.5","8","Energy Building, Kernkade 2","Utrecht",,"NL","https://teamflex.nl/contact/utrecht/","+31 30 303 0622","Temp agency","https://www.google.com/maps/search/?api=1&query=Teamflex%20Personeelsdiensten%20Utrecht&query_place_id=ChIJyQG3MrxvxkcRwPj5CMA0jFA"
"Ziebena's Care",,"0","Nevadadreef 76","Utrecht",,"NL","https://ziebenascare.nl/","+31 30 246 7628","Temp agency","https://www.google.com/maps/search/?api=1&query=Ziebena's%20Care&query_place_id=ChIJzawT8mtvxkcRoOcA3NZQ3Ow"
"Royal HaskoningDHV","4.3","22","Leidseveer 4","Utrecht",,"NL","http://www.royalhaskoningdhv.com/","+31 88 348 2000","Engineering consultant","https://www.google.com/maps/search/?api=1&query=Royal%20HaskoningDHV&query_place_id=ChIJLc24PmhvxkcRvkX7a92P63s"
"MaC International B.V.",,"0","Ondiep-Zuidzijde 6","Utrecht",,"NL","https://www.mac-international.nl/","+31 30 245 6331","Temp agency","https://www.google.com/maps/search/?api=1&query=MaC%20International%20B.V.&query_place_id=ChIJmeChTQ1vxkcRkV2EYhTtSTM"
"Career Control Finance","4.5","29","Vliegend Hertlaan 93-95","Utrecht",,"NL","http://www.careercontrol-f.nl/","+31 30 303 9310","Temp agency","https://www.google.com/maps/search/?api=1&query=Career%20Control%20Finance&query_place_id=ChIJhwmdJNl5xkcRoKl1CdbIJ7k"
"Breinstein","3.7","3","Papendorpseweg 99, Gebouw A","Utrecht",,"NL","http://www.breinstein.nl/","+31 85 066 7421","Temp agency","https://www.google.com/maps/search/?api=1&query=Breinstein&query_place_id=ChIJaxrS_lhlxkcR9jFM_OZY8EI"
"Plieger Groep Utrecht Office",,"0","Catharijnesingel 47","Utrecht",,"NL","https://plieger.homerun.co/","+31 418 682 682","Corporate office","https://www.google.com/maps/search/?api=1&query=Plieger%20Groep%20Utrecht%20Office&query_place_id=ChIJk5VDo2dvxkcRTDXLZl9P8ZY"
"Unique Utrecht Uitzendbureau","3.9","31","Herculesplein 100","Utrecht",,"NL","https://unique.nl/over-unique/vestigingen/vestiging/unique-uitzendbureau-utrecht-(o2940055)?utm_source=google&utm_medium=organic&utm_campaign=gmb-vestiging","+31 30 273 6100","Employment agency","https://www.google.com/maps/search/?api=1&query=Unique%20Utrecht%20Uitzendbureau&query_place_id=ChIJr_wV1RtvxkcRO06gjs6IK08"
"Stichting Integrand","5","5","Servaasbolwerk 11","Utrecht",,"NL","http://www.integrand.nl/","+31 30 234 2111","Temp agency","https://www.google.com/maps/search/?api=1&query=Stichting%20Integrand&query_place_id=ChIJaz3sq0xvxkcRJuJ8VPScGVo"
"FourParties Utrecht",,"0","Oudegracht 251","Utrecht",,"NL","http://www.fourparties.nl/","+31 6 48048491","Temp agency","https://www.google.com/maps/search/?api=1&query=FourParties%20Utrecht&query_place_id=ChIJlQj0Yj9vxkcRhg7LN8Kbz7c"
"Icebreaking Recruitment","5","2","St Jacobsstraat 123, Office 416","Utrecht",,"NL","https://www.icebreakingrecruitment.nl/","+31 6 53672081","BPO placement agency","https://www.google.com/maps/search/?api=1&query=Icebreaking%20Recruitment&query_place_id=ChIJaXUbxAvixUcRL1azvgnZIvE"
"Randstad Reactorweg Utrecht","3.4","5","Reactorweg 47","Utrecht",,"NL","https://www.randstad.nl/?utm_medium=organic&utm_source=GMB&utm_campaign=GMB_Utrecht","+31 30 284 0500","Recruiter","https://www.google.com/maps/search/?api=1&query=Randstad%20Reactorweg%20Utrecht&query_place_id=ChIJU91r8dl5xkcR0Yik9rGzaFU"
"Aigency",,"0","St Jacobsstraat 12","Utrecht",,"NL","https://www.aigency.com/","+31 6 53643473","Corporate office","https://www.google.com/maps/search/?api=1&query=Aigency&query_place_id=ChIJKe1r808JxkcR9TPPwVidv9U"
"Etappe Uitzendbureau B.V.","5","2","Kon. Wilhelminalaan 8","Utrecht",,"NL",,"+31 30 299 0724","Temp agency","https://www.google.com/maps/search/?api=1&query=Etappe%20Uitzendbureau%20B.V.&query_place_id=ChIJX6b0UrNoxkcR6DntXfJ5pz8"
"Globen Personeel De Meern(uitzendbureau groen en infra)","4.6","25","Beefland 10","Utrecht",,"NL","https://www.globen.nl/","+31 30 260 0987","Temp agency","https://www.google.com/maps/search/?api=1&query=Globen%20Personeel%20De%20Meern(uitzendbureau%20groen%20en%20infra)&query_place_id=ChIJfcnurZlkxkcRqQF2iSFxyoU"
"SUSA flexibel studentenwerk","3.4","57","Maliebaan 87","Utrecht",,"NL","http://www.susa.nl/","+31 88 235 7872","Temp agency","https://www.google.com/maps/search/?api=1&query=SUSA%20flexibel%20studentenwerk&query_place_id=ChIJHwJAJU1vxkcREn-K-Ucs6P0"
"TimeEdit Benelux","5","1","Daalsesingel 51","Utrecht",,"NL","https://www.timeedit.com/","+31 6 22529163","Software company","https://www.google.com/maps/search/?api=1&query=TimeEdit%20Benelux&query_place_id=ChIJox7uNa9vxkcRnoJgM-lHb3w"
"2|Build B.V.",,"0","Ptolemaeuslaan 80","Utrecht",,"NL","http://www.2build.nl/","+31 30 287 5306","Temp agency","https://www.google.com/maps/search/?api=1&query=2%7CBuild%20B.V.&query_place_id=ChIJ5ZHXxZ1lxkcRXH5D-mmReyM"
"PMDR Intermediairs BV",,"0","Atoomweg 63","Utrecht",,"NL","https://www.pmdr.nl/","+31 30 304 1010","Temp agency","https://www.google.com/maps/search/?api=1&query=PMDR%20Intermediairs%20BV&query_place_id=ChIJ2ZsEzPJvxkcRWnhbEYxD1VE"
"Flexbureau",,"0","Biltstraat 43","Utrecht",,"NL",,,"Temp agency","https://www.google.com/maps/search/?api=1&query=Flexbureau&query_place_id=ChIJbSGxx05vxkcRj1lT-_s8t4E"
"Simpelsales B.V.",,"0","Nieuwegracht 98","Utrecht",,"NL","https://www.simpelsales.nl/","+31 30 232 2020","Employment agency","https://www.google.com/maps/search/?api=1&query=Simpelsales%20B.V.&query_place_id=ChIJs96dOFFvxkcRAJqDPHfqhNI"
"Wajongers Werken",,"0","Amsterdamsestraatweg 634","Utrecht",,"NL","http://wajongerswerken.nl/","+31 30 850 9561","Employment agency","https://www.google.com/maps/search/?api=1&query=Wajongers%20Werken&query_place_id=ChIJ14qT2aVvxkcRQ6nm-hlDhaI"
"Uitzendconcurrent",,"0","Proostwetering 24K","Utrecht",,"NL","http://www.uitzendbureau-utrecht.com/","+31 30 201 3717","Temp agency","https://www.google.com/maps/search/?api=1&query=Uitzendconcurrent&query_place_id=ChIJn9L43GpkxkcRxGb_yYM0AFI"
"Progressive Recruitment","3","2","Stadsplateau 30","Utrecht",,"NL","https://www.progressiverecruitment.com/nl-nl/","+31 30 899 2155","Recruiter","https://www.google.com/maps/search/?api=1&query=Progressive%20Recruitment&query_place_id=ChIJtTCBOyZvxkcRHj4v7ZjzNFA"
"Job Vision B.V.","3.8","71","Atoomweg 478","Utrecht",,"NL","http://www.jobvision.nu/","+31 30 246 8888","Temp agency","https://www.google.com/maps/search/?api=1&query=Job%20Vision%20B.V.&query_place_id=ChIJBeKTXm1vxkcR0Km_p3YfYkk"
"SPARQ Hospitality","4","3","Reactorweg 47","Utrecht",,"NL","http://www.sparq.nl/index.html?utm_medium=organic&utm_source=GMB&utm_campaign=GMB_SPARQ_Hospitality","+31 88 126 9914","Temp agency","https://www.google.com/maps/search/?api=1&query=SPARQ%20Hospitality&query_place_id=ChIJPUICIBgKxkcRfroWQTgUDp0"
"Pharmamediair",,"0","Maliebaan 80","Utrecht",,"NL","http://www.pharmamediair.nl/","+31 30 231 7350","Temp agency","https://www.google.com/maps/search/?api=1&query=Pharmamediair&query_place_id=ChIJnUwJYEtvxkcR_BI_OxL8wmk"
"Calder Werkt","4.7","27","Australiëlaan","Utrecht",,"NL","https://www.calderwerkt.nl/","+31 88 270 1240","Employment center","https://www.google.com/maps/search/?api=1&query=Calder%20Werkt&query_place_id=ChIJUVx2jJRlxkcRUUFKS8EpaVU"
"Allrounders BV Uitzendbureau","4.2","21","Maarssenbroeksedijk 13D","Utrecht",,"NL","http://www.allrounderjobs.nl/","+31 30 249 6600","Temp agency","https://www.google.com/maps/search/?api=1&query=Allrounders%20BV%20Uitzendbureau&query_place_id=ChIJFdtCOHkfRo8Rx7WXyuAjB6s"
"U-Work Uitzendbureau","3.9","11","Niasstraat","Utrecht",,"NL","http://www.u-work.nu/","+31 30 785 7799","Temp agency","https://www.google.com/maps/search/?api=1&query=U-Work%20Uitzendbureau&query_place_id=ChIJRYDkFnVvxkcRssvU-hm54NU"
"StartPeople","1","2","Potterstraat 14","Utrecht",,"NL","https://startpeople.nl/","+31 30 256 7935","Employment agency","https://www.google.com/maps/search/?api=1&query=StartPeople&query_place_id=ChIJw7whiERvxkcR5G6PDE6EmBY"
"MAC People",,"0","Ondiep-Zuidzijde 6","Utrecht",,"NL","http://mac-people.nl/","+31 30 245 6331","Employment agency","https://www.google.com/maps/search/?api=1&query=MAC%20People&query_place_id=ChIJW0YSTA1vxkcRO0tH5HYi0bA"
"Astare Uitzendbureau GGz - Locatie Utrecht","4.8","74","Lange Nieuwstraat 10","Utrecht",,"NL","https://www.astare.nl/","+31 88 445 0000","Temp agency","https://www.google.com/maps/search/?api=1&query=Astare%20Uitzendbureau%20GGz%20-%20Locatie%20Utrecht&query_place_id=ChIJqw_FUrJoxkcRbCxFusMShoA"
"Fidez Recruitment",,"0","Austerlitz 7","Utrecht",,"NL","https://fidez.nl/","+31 6 46310037","Recruiter","https://www.google.com/maps/search/?api=1&query=Fidez%20Recruitment&query_place_id=ChIJidE8J24KxkcRGjKLcEMLlVI"
"Randstad Uitzendbureau Utrecht","3.5","10","Smakkelaarshoek 10-14","Utrecht",,"NL","https://www.randstad.nl/?utm_medium=organic&utm_source=GMB&utm_campaign=GMB_Utrecht","+31 30 233 7711","Recruiter","https://www.google.com/maps/search/?api=1&query=Randstad%20Uitzendbureau%20Utrecht&query_place_id=ChIJ6yU8eUNvxkcRbbDXCZozNz8"
"XL Con Gusto Utrecht",,"0","Herculesplein 241","Utrecht",,"NL","https://www.xlcongusto.nl/","+31 30 744 0501","Temp agency","https://www.google.com/maps/search/?api=1&query=XL%20Con%20Gusto%20Utrecht&query_place_id=ChIJLYxXKCxnxkcRkM_va56lDbE"
"Flexchoice",,"0","Herculesplein 355A","Utrecht",,"NL","https://flexchoice.nl/","+31 30 636 5009","Temp agency","https://www.google.com/maps/search/?api=1&query=Flexchoice&query_place_id=ChIJJ9KXxvVnxkcRRmwhQajvLOU"
"Uitzendbureau ASA onderwijs Utrecht",,"0","Potterstraat 14","Utrecht",,"NL","https://asatalent.nl/vestigingen/asa-onderwijs?utm_source=google&utm_medium=organic&utm_campaign=gmb-vestiging","+31 88 837 9900","Employment agency","https://www.google.com/maps/search/?api=1&query=Uitzendbureau%20ASA%20onderwijs%20Utrecht&query_place_id=ChIJzVJHgQNvxkcR5OQD3mAANhc"
"Broer Bemiddeling",,"0","Jan Vogellaan 12","Utrecht",,"NL","https://www.broerbemiddeling.nl/","+31 6 21886412","Recruiter","https://www.google.com/maps/search/?api=1&query=Broer%20Bemiddeling&query_place_id=ChIJvXFBS_ZvxkcRXlKfO5_XN7g"
"T & E Personeelsdiensten B.V.",,"0","Atoomweg 50","Utrecht",,"NL","http://www.tene.nl/","+31 43 310 1072","Employment agency","https://www.google.com/maps/search/?api=1&query=T%20%26%20E%20Personeelsdiensten%20B.V.&query_place_id=ChIJAUvoeWpvxkcRdRUYeWf6f_A"
"Valuez Recruitment BV","5","10","Van den Broekstraat 64","Utrecht",,"NL","http://www.valuez.nl/","+31 85 004 3006","Recruiter","https://www.google.com/maps/search/?api=1&query=Valuez%20Recruitment%20BV&query_place_id=ChIJKd_9e4tnxkcRrDxXoeqxSuU"
"Singel Personeelsdiensten","3.3","6","Tennesseedreef 13-R","Utrecht",,"NL","https://www.nobrothers.nl/singel","+31 30 707 0888","Temp agency","https://www.google.com/maps/search/?api=1&query=Singel%20Personeelsdiensten&query_place_id=ChIJpYnLZVFuxkcRk7I6c2G3F3Q"
"Loopbaanstappen",,"0","Kanaalweg 16G","Utrecht",,"NL","https://loopbaanstappen.nl/contact/","+31 6 46226729",,"https://www.google.com/maps/search/?api=1&query=Loopbaanstappen&query_place_id=ChIJ__-_m-1lxkcRrJTzfHNOXG8"
"Koers Loopbaancoaching Utrecht",,"0","Oorsprongpark 7","Utrecht",,"NL","https://www.koersloopbaancoaching.nl/loopbaancoach-utrecht","+31 13 203 5993","Career guidance service","https://www.google.com/maps/search/?api=1&query=Koers%20Loopbaancoaching%20Utrecht&query_place_id=ChIJT54CnBdpxkcRdcK00CaItiQ"
"Loopbaaninzicht",,"0","Goeman Borgesiuslaan 77","Utrecht",,"NL","https://www.loopbaaninzicht.nl/","+31 30 755 1532","Counselor","https://www.google.com/maps/search/?api=1&query=Loopbaaninzicht&query_place_id=ChIJFSDtvT9vxkcRvYWh8CuMcbo"
"De Werkcoach","5","2","Jacob van der Borchstraat 75","Utrecht",,"NL","http://www.dewerkcoach.nu/","+31 6 16395512","Counselor","https://www.google.com/maps/search/?api=1&query=De%20Werkcoach&query_place_id=ChIJj4PQDzlvxkcR4cDKLfki-78"
"Evoke",,"0","Papendorpseweg 75-79","Utrecht",,"NL","https://evokestaffing.com/nl/","+31 495 518 999","Human resource consulting","https://www.google.com/maps/search/?api=1&query=Evoke&query_place_id=ChIJx7py4-xlxkcRWMZLSbLjT_Y"
"Teleperformance Netherlands - Utrecht","3.8","25","Papendorpseweg 97-B","Utrecht",,"NL","http://jobs.teleperformance.nl/","+31 79 751 1000","Call center","https://www.google.com/maps/search/?api=1&query=Teleperformance%20Netherlands%20-%20Utrecht&query_place_id=ChIJybQhrJllxkcRn3n-t3sGNnw"
"Carrière Vormer",,"0","Papendorpseweg 100","Utrecht",,"NL","http://carrierevormer.nl/","+31 30 889 1897","Recruiter","https://www.google.com/maps/search/?api=1&query=Carri%C3%A8re%20Vormer&query_place_id=ChIJVfnHjJllxkcRqF2W2tVokqQ"
"FBRC GGZ Werving","4.9","14","Lange Viestraat 2b","Utrecht",,"NL","http://www.ggz-werving.nl/","+31 88 742 5991","Recruiter","https://www.google.com/maps/search/?api=1&query=FBRC%20GGZ%20Werving&query_place_id=ChIJrzOy-SVpxkcRLTXFGv53yyE"
"Morgan Lab","5","1","St Jacobsstraat 129","Utrecht",,"NL","https://www.morganlab.nl/","+31 30 200 4805","Recruiter","https://www.google.com/maps/search/?api=1&query=Morgan%20Lab&query_place_id=ChIJ__xY7-ZvxkcR4HkyAORcOhc"
"Uitbestedingscentrum",,"0","Orteliuslaan 850","Utrecht",,"NL","http://www.uitbestedingscentrum.nl/","+31 6 14208805","Technology park","https://www.google.com/maps/search/?api=1&query=Uitbestedingscentrum&query_place_id=ChIJOTHXujVlxkcRyRNga-kqwKs"
"Leadership Talents",,"0","Orteliuslaan 855","Utrecht",,"NL","http://www.plustalent.nl/","+31 30 890 5415","Vocational school","https://www.google.com/maps/search/?api=1&query=Leadership%20Talents&query_place_id=ChIJUUjv4XdlxkcRE6f2M7Zof6Q"
