title,reviewsCount,street,city,website,phone,categoryName,emails
Anfa uitzendbureau,3,Europalaan 2,Utrecht,http://www.anfa-uitzendbureau.nl/,+31 6 23788216,Temp agency,['info@anfa.nl']
Aditech Utrecht,3,Pretoriadreef 134,Utrecht,https://www.aditech.nl/?utm_source=google&utm_medium=organic&utm_campaign=gmb-website-button,+31 88 234 8333,Temp agency,['info@aditech.nl']
Vetwork,15,Biltstraat 182,Utrecht,http://www.vetwork.nl/,+31 30 237 1130,Employment agency,['info@vetwork.nl']
Azor Uitzendbureau Midden Nederland B.V.,113,Veilinghavenkade 173,Utrecht,http://www.azoruitzendbureau.nl/,+31 30 243 0680,Temp agency,['info@azoruitzendbureau.nl']
Verein | Adviseurs sociale zekerheid & arbodienstverlening,0,Orteliuslaan 5,Utrecht,https://www.verein.nl/?utm_source=GMBlisting&utm_medium=organic,+31 6 55128972,Occupational health service,['info@verein.nl']
De Werknemerspoule B.V.,0,Savannahweg 71C,Utrecht,http://www.dewerknemerspoule.nl/,+31 85 303 6849,Temp agency,['info@dewerknemerspoule.nl']
Poolsekracht.nl,19,Kanaalweg 86,Utrecht,https://poolsekracht.nl/,+31 6 43975544,Temp agency,['info@poolsekracht.nl']
Rvaring uitzendbureau 40+ & 65+,73,Atoomweg 272,Utrecht,http://www.rvaring.nl/,+31 85 744 0962,Temp agency,['info@rvaring.nl']
VNOM | We get the job done,126,Orteliuslaan 875 - 889,Utrecht,https://www.vnom.nl/,+31 30 307 9262,Temp agency,['info@vnom.nl']
Naarding & Van der Meer Detachering B.V.,5,Rijnzathe 6,Utrecht,http://www.naardingenvandermeer.nl/,+31 30 744 0004,Temp agency,['info@naardingenvandermeer.nl']
Even Werkt!,0,Herculesplein 88,Utrecht,https://www.evenwerkt.nl/,+31 30 711 6474,Temp agency,['info@evenwerkt.nl']
Doorwerker.nl,0,Euclideslaan 253,Utrecht,http://www.doorwerker.nl/,+31 88 220 0222,Unemployment office,['info@doorwerker.nl']
Adecco,29,Euclideslaan 1,Utrecht,https://www.adecco.nl/vacatures/utrecht,+31 30 233 0130,Employment agency,['info@adecco.nl']
Go:Office Recruitment,58,Goeman Borgesiuslaan 77,Utrecht,https://go-office.nl/,+31 88 240 9070,Temp agency,['info@go-office.nl']
U-boss Uitzendbureau,3,Potterstraat 6,Utrecht,http://www.u-bossuitzendbureau.nl/,+31 30 233 1144,Temp agency,['info@u-bossuitzendbureau.nl']
NOWJOBS,93,Herculesplein 36,Utrecht,https://www.nowjobs.nl/,+31 88 562 7000,Temp agency,['info@nowjobs.nl']
Urgent Uitzendburo B.V.,10,Biltstraat 16,Utrecht,https://urgent-uitzendburo.nl/,+31 30 231 6344,Temp agency,['info@urgent-uitzendburo.nl']
Employment Utrecht Young Capital,520,Arthur van Schendelstraat 500,Utrecht,https://www.youngcapital.nl/uitzendbureau/utrecht,+31 30 238 0310,Temp agency,['info@youngcapital.nl']
My Sales Recruiter,1,Europalaan 100,Utrecht,https://www.mijnsalesrecruiter.nl/,+31 30 303 9210,Recruiter,['info@mijnsalesrecruiter.nl']
The Solutionz Group B.V.,21,Savannahweg 60,Utrecht,http://www.thesolutionzgroup.com/,+31 30 227 1690,Computer consultant,['info@thesolutionzgroup.com']
Handelsonderneming Suilen B.V.,7,Coloradodreef 21-23,Utrecht,https://www.suilen.nl/,+31 30 262 8424,Warehouse,['info@suilen.nl']
JobsforMoms,0,Van Brammendreef 165,Utrecht,http://www.jobsformoms.nl/,+31 6 38479597,Unemployment office,['info@jobsformoms.nl']
The Impact Group B.V.,10,Maliestraat 3,Utrecht,http://impactgroup.nl/,+31 85 239 2100,Unemployment office,['info@impactgroup.nl']
Derec - Utrecht,14,Europalaan 400,Utrecht,https://www.derec.nl/,+31 88 603 3880,Unemployment office,['info@derec.nl']
Recruitment Solutionz,0,Savannahweg 60,Utrecht,https://www.recruitment-solutionz.com/,+31 30 227 1690,Unemployment office,['info@recruitment-solutionz.com']
Boom recruitment,1,Californiëdreef 23,Utrecht,http://www.boomrecruitment.nl/,+31 6 58949010,Unemployment office,['info@boomrecruitment.nl']
CareAbout,4,Vleutenseweg 386,Utrecht,http://www.care-about.nl/,+31 85 130 2244,Medical office,['info@care-about.nl']
Trend People De Meern,2,Rijksstraatweg 96,Utrecht,http://www.trend.nl/,+31 30 666 5624,Temp agency,['info@trend.nl']
Vitec,0,Savannahweg 68,Utrecht,https://www.vitec.nl/,+31 88 180 1288,Consultant,['info@vitec.nl']
"De Roo interim, werving en trainingen voor onderwijs",1,"Reykjavikstraat, Helix 1, gebouw, Ruimte M.26",Utrecht,http://www.deroo.nl/,+31 88 552 2999,Consultant,['info@deroo.nl']
V.O.F. Bosman & Vos,4,Stadsplateau 29,Utrecht,https://www.bosmanvos.nl/,+31 85 043 0568,Business management consultant,['info@bosmanvos.nl']
Networkapp,0,"Postadres:, Theo van Doesburgstraat 48",Utrecht,https://networkapp.com/,+31 30 227 0660,Event technology service,['info@networkapp.com']
Q-logic,0,Euclideslaan 51-67,Utrecht,http://www.q-logic.nl/,+31 30 808 2924,Recruiter,['info@q-logic.nl']
Aannemersbedrijf Bos & Zn.,11,Jeruzalemstraat 14,Utrecht,https://www.aannemerbos.nl/,+31 30 220 2647,Construction company,['info@aannemerbos.nl']
ADJ - Talentmanagement voor maatschappelijke organisaties,2,Maliebaan 108,Utrecht,https://adj.nl/,+31 30 737 1185,Consultant,['info@adj.nl']
Novicum,6,Papendorpseweg 75,Utrecht,https://novicum.nl/,+31 30 605 1005,Corporate office,['info@novicum.nl']
Keypoint Utrecht,2,Nieuwegracht 24A,Utrecht,http://www.keypoint.eu/,+31 30 820 1168,Consultant,['info@keypoint.eu']
Codator BV,2,Catharijnesingel 55H,Utrecht,https://codator.net/,+31 30 774 0634,Legal services,['info@codator.net']
Orange Recruitment,0,Maliebaan 98,Utrecht,https://www.orangerecruitment.nl/,+31 6 54742304,Recruiter,['info@orangerecruitment.nl']
Fonds 21,0,Orteliuslaan 27,Utrecht,http://www.fonds21.nl/,+31 30 233 7600,Foundation,['info@fonds21.nl']
Trend People Utrecht,1,Maliebaan 50b,Utrecht,http://www.trend.nl/,+31 30 231 1913,Temp agency,['info@trend.nl']
Ascom (Netherlands) BV,20,Orteliuslaan 982,Utrecht,http://www.ascom.nl/,+31 30 240 9100,Electronic parts supplier,['info.nl@ascom.com']
Humble Recruitment B.V.,7,Jansveld 39,Utrecht,https://www.humblerecruitment.nl/,+31 88 437 1000,Recruiter,['info@humblerecruitment.nl']
Power4People B.V. | Utrecht | Hoofdkantoor,23,Maliebaan 11,Utrecht,http://www.power4people.nl/,+31 30 691 1666,Coaching center,['info@power4people.nl']
Pesant,0,Rijnzathe 6,Utrecht,http://www.pesant.nl/,+31 85 070 3422,Educational consultant,['info@pesant.nl']
Nova Dia,17,Pythagoraslaan 101,Utrecht,http://www.novadia.nl/,+31 30 303 1111,Business broker,['info@novadia.nl']
B.V. Topselect Groep,8,"Daltonlaan 400, 3e etage",Utrecht,https://www.topselectgroep.nl/,+31 85 077 5040,Unemployment office,['info@topselectgroep.nl']
House of Bèta,9,Euclideslaan 2,Utrecht,http://houseofbeta.nl/,+31 88 170 1480,Human resource consulting,['info@houseofbeta.nl']
Talent&Pro,40,Euclideslaan 2,Utrecht,https://www.talent-pro.com/,+31 88 170 1400,Human resource consulting,['info@talent-pro.com']
Mount Consulting B.V.,0,Goeman Borgesiuslaan 77,Utrecht,http://www.mount.consulting/,+31 30 755 1517,Consultant,['info@mount.consulting']
Q-Talent,3,Oudlaan 4,Utrecht,https://www.qtalent.nl/,+31 88 102 0930,Temp agency,['info@qtalent.nl']
"Voor Tekst, bureau voor arbeidsmarktcommunicatie",4,Goeman Borgesiuslaan 77,Utrecht,https://www.voortekst.nl/,+31 85 760 4206,Marketing agency,['info@voortekst.nl']
Work people B.V.,1,Van Bijnkershoeklaan 393,Utrecht,http://www.workpeoplebv.nl/,+31 30 269 0289,Employment agency,['info@workpeoplebv.nl']
Amigas Uitzendbureau BV,15,Pretoriadreef 47,Utrecht,http://amigasuitzendbureau.nl/,+31 30 267 6379,Temp agency,['info@amigasuitzendbureau.nl']
Uitzendbureau Zorgflex,0,Simplonbaan 134,Utrecht,http://www.uitzendbureau-zorgflex.nl/,+31 30 231 0899,Temp agency,['info@uitzendbureau-zorgflex.nl']
Peoplez,0,Laan van Chartroise 170,Utrecht,http://www.peoplez.nl/contact/,+31 30 208 1111,Human resource consulting,['info@peoplez.nl']
Eager People Utrecht,21,Grebbeberglaan 15,Utrecht,https://eagerpeople.nl/,+31 30 201 1762,Temp agency,['info@eagerpeople.nl']
DigitaalGroeien,4,Rotsoord 13B,Utrecht,https://digitaalgroeien.nl/,+31 30 737 0845,Educational consultant,['info@jijonline.nu']
Loopbaan stappen advies,0,Willem Barentszstraat 13A,Utrecht,http://www.loopbaanstappen.nl/,+31 6 46226729,Counselor,['info@loopbaanstappen.nl']
Top Secretaries Midden Nederland,0,Euclideslaan 1,Utrecht,https://www.adecco.nl/topsecretaries,+31 30 233 3489,Employment agency,"['info@topsecretaries.nl', 'info@adecco.nl']"
Studentalent Utrecht,3,Herculesplein 241,Utrecht,http://www.studentalent.nl/,+31 30 890 6360,Temp agency,['info@studentalent.nl']
Ziebena's Care,0,Nevadadreef 76,Utrecht,https://ziebenascare.nl/,+31 30 246 7628,Temp agency,['info@ziebenascare.nl']
MaC International B.V.,0,Ondiep-Zuidzijde 6,Utrecht,https://www.mac-international.nl/,+31 30 245 6331,Temp agency,['info@mac-international.nl']
Career Control Finance,29,Vliegend Hertlaan 93-95,Utrecht,http://www.careercontrol-f.nl/,+31 30 303 9310,Temp agency,['info@careercontrol.nl']
Unique Utrecht Uitzendbureau,31,Herculesplein 100,Utrecht,https://unique.nl/over-unique/vestigingen/vestiging/unique-uitzendbureau-utrecht-(o2940055)?utm_source=google&utm_medium=organic&utm_campaign=gmb-vestiging,+31 30 273 6100,Employment agency,['info@unique.nl']
Stichting Integrand,5,Servaasbolwerk 11,Utrecht,http://www.integrand.nl/,+31 30 234 2111,Temp agency,['info@integrand.nl']
FourParties Utrecht,0,Oudegracht 251,Utrecht,http://www.fourparties.nl/,+31 6 48048491,Temp agency,['info@fourparties.nl']
Aigency,0,St Jacobsstraat 12,Utrecht,https://www.aigency.com/,+31 6 53643473,Corporate office,['info@aigency.com']
PMDR Intermediairs BV,0,Atoomweg 63,Utrecht,https://www.pmdr.nl/,+31 30 304 1010,Temp agency,['info@pmdr.nl']
Pharmamediair,0,Maliebaan 80,Utrecht,http://www.pharmamediair.nl/,+31 30 231 7350,Temp agency,['info@pharmamediair.nl']
Calder Werkt,27,Australiëlaan,Utrecht,https://www.calderwerkt.nl/,+31 88 270 1240,Employment center,['info@calderwerkt.nl']
Allrounders BV Uitzendbureau,21,Maarssenbroeksedijk 13D,Utrecht,http://www.allrounderjobs.nl/,+31 30 249 6600,Temp agency,['info@allrounderjobs.nl']
StartPeople,2,Potterstraat 14,Utrecht,https://startpeople.nl/,+31 30 256 7935,Employment agency,['info@startpeople.nl']
MAC People,0,Ondiep-Zuidzijde 6,Utrecht,http://mac-people.nl/,+31 30 245 6331,Employment agency,['info@mac-people.nl']
Flexchoice,0,Herculesplein 355A,Utrecht,https://flexchoice.nl/,+31 30 636 5009,Temp agency,['info@flexchoice.nl']
T & E Personeelsdiensten B.V.,0,Atoomweg 50,Utrecht,http://www.tene.nl/,+31 43 310 1072,Employment agency,['info@staffyou.nl']
Singel Personeelsdiensten,6,Tennesseedreef 13-R,Utrecht,https://www.nobrothers.nl/singel,+31 30 707 0888,Temp agency,['info@nobrothers.nl']
Loopbaanstappen,0,Kanaalweg 16G,Utrecht,https://loopbaanstappen.nl/contact/,+31 6 46226729,,['info@loopbaanstappen.nl']
Koers Loopbaancoaching Utrecht,0,Oorsprongpark 7,Utrecht,https://www.koersloopbaancoaching.nl/loopbaancoach-utrecht,+31 13 203 5993,Career guidance service,['info@koersloopbaancoaching.nl']
Loopbaaninzicht,0,Goeman Borgesiuslaan 77,Utrecht,https://www.loopbaaninzicht.nl/,+31 30 755 1532,Counselor,['info@loopbaaninzicht.nl']
Carrière Vormer,0,Papendorpseweg 100,Utrecht,http://carrierevormer.nl/,+31 30 889 1897,Recruiter,['info@carrierevormer.nl']
FBRC GGZ Werving,14,Lange Viestraat 2b,Utrecht,http://www.ggz-werving.nl/,+31 88 742 5991,Recruiter,['info@ggz-werving.nl']
Uitbestedingscentrum,0,Orteliuslaan 850,Utrecht,http://www.uitbestedingscentrum.nl/,+31 6 14208805,Technology park,['info@uitbestedingscentrum.nl']
